ARIANE 40 R/B           
1 20443U 90005H   26064.15762145  .00000340  00000+0  12156-3 0  9990
2 20443  98.3093 124.9540 0009575 212.6038 147.4561 14.39866832892153
DELTA 2 R/B(1)          
1 20453U 90008B   26063.75387414  .00086998  00000+0  10410-2 0  9994
2 20453  35.6042 207.2295 0086505 213.0642 146.4665 15.55228084925362
COSMOS 2058             
1 20465U 90010A   26063.88101044  .00005535  00000+0  32708-3 0  9990
2 20465  82.4668  52.1652 0009744 359.3865   0.7351 15.11269021941511
SL-14 R/B               
1 20466U 90010B   26064.30286533  .00000566  00000+0  65682-4 0  9993
2 20466  82.4991 271.5106 0018804 317.6916  42.2847 14.83564652927839
SL-14 R/B               
1 20511U 90018B   26064.18146539  .00000684  00000+0  82730-4 0  9993
2 20511  82.5194 227.3036 0017620 105.7341 254.5819 14.82138960921918
HST                     
1 20580U 90037B   26064.11414900  .00009685  00000+0  32209-3 0  9998
2 20580  28.4704  71.2102 0001764  80.5855 279.4940 15.29397580772611
SL-16 R/B               
1 20625U 90046B   26064.10222460 -.00000210  00000+0 -83727-4 0  9994
2 20625  70.9998 307.5493 0016177 305.7503  54.2114 14.15014108847747
COSMOS 2084             
1 20663U 90055A   26064.20573276  .00003876  00000+0  28027-3 0  9991
2 20663  62.7926 350.8703 0017803 188.8719 171.2070 15.05618559935648
SL-6 R/B(2)             
1 20666U 90055D   26063.98272784  .00002548  00000+0  19910-3 0  9994
2 20666  62.7816 269.8581 0024028 345.8711  14.1714 15.03567239937486
SL-8 R/B                
1 20775U 90078B   26064.00601782  .00019810  00000+0  58268-3 0  9997
2 20775  82.8993 255.5236 0363360  29.7298 332.4032 14.88877115808607
SL-8 R/B                
1 21088U 91006B   26064.26564946  .00000083  00000+0  67616-4 0  9995
2 21088  82.9464 173.3345 0023311  50.2757   8.4387 13.77493667763465
OKEAN-3                 
1 21397U 91039A   26064.22375634  .00004367  00000+0  30720-3 0  9998
2 21397  82.5196 341.1691 0014222 354.6895   5.4178 15.04765498864362
COSMOS 2151             
1 21422U 91042A   26064.28087209  .00002812  00000+0  22312-3 0  9996
2 21422  82.4929  87.9301 0014067  76.8391 283.4401 15.00085132862538
SL-14 R/B               
1 21423U 91042B   26063.49071818  .00000710  00000+0  86799-4 0  9993
2 21423  82.4912 225.0577 0015620 257.1611 102.7858 14.81823576852309
ERS-1                   
1 21574U 91050A   26064.31813202  .00000431  00000+0  15256-3 0  9991
2 21574  98.7886  82.4429 0031375 213.5718 146.3481 14.39445398815104
ARIANE 40 R/B           
1 21610U 91050F   26064.17144632  .00000388  00000+0  12873-3 0  9993
2 21610  98.2021 116.5773 0004350  91.1191 269.0498 14.42889712818346
INTERCOSMOS 25          
1 21819U 91086A   26064.11720082  .00001519  00000+0  29090-3 0  9992
2 21819  82.6060 312.7721 1487008 126.7821 247.9227 12.11984914496139
SL-8 R/B                
1 21876U 92008B   26064.30865344  .00000002  00000+0 -14004-4 0  9999
2 21876  82.9227 271.0382 0035331 145.2580  27.6739 13.75969739708816
SL-8 R/B                
1 21938U 92020B   26064.24856064  .00000110  00000+0  98432-4 0  9990
2 21938  82.9341 157.0582 0027823 311.7297  76.8862 13.75548966700527
USA 81                  
1 21949U 92023A   26064.25776704  .00000242  00000+0  82263-4 0  9999
2 21949  85.0093 133.9978 0002592  81.0892 279.0593 14.32366321 94153
COSMOS 2219             
1 22219U 92076A   26064.20597868  .00000282  00000+0  17237-3 0  9997
2 22219  71.0624  27.4398 0019260 213.0513 146.9408 14.14090442717741
SL-16 R/B               
1 22220U 92076B   26064.31014767 -.00000027  00000+0  10507-4 0  9995
2 22220  71.0001 197.5979 0010539 104.4726 269.5242 14.16860264721219
COSMOS 2221             
1 22236U 92080A   26064.08964496  .00002459  00000+0  21569-3 0  9993
2 22236  82.5014 283.4884 0013613 203.1320 156.9291 14.96179779780108
SL-16 R/B               
1 22285U 92093B   26064.28728112 -.00000166  00000+0 -60805-4 0  9998
2 22285  71.0239  13.5066 0006344 298.3352  61.7131 14.15449250712535
COSMOS 2228             
1 22286U 92094A   26064.17588475  .00003433  00000+0  29420-3 0  9999
2 22286  82.5147 241.6332 0017076 320.7773  39.2211 14.97163868775381
SL-16 R/B               
1 22566U 93016B   26064.18592111  .00000295  00000+0  17610-3 0  9999
2 22566  71.0061 224.6402 0011475 320.5366  39.4920 14.15306384701539
COSMOS 2242             
1 22626U 93024A   26064.08926311  .00002128  00000+0  18458-3 0  9995
2 22626  82.5152 271.1182 0015490 325.4082  34.6130 14.96525659779707
SL-16 R/B               
1 22803U 93059B   26064.24202987 -.00000059  00000+0 -54664-5 0  9998
2 22803  70.9922  20.5044 0018747 222.9016 137.0647 14.17232284678902
ARIANE 40 R/B           
1 22830U 93061H   26064.15958840  .00000268  00000+0  11389-3 0  9992
2 22830  98.4924 133.1364 0009622 300.0937  59.9292 14.32858189693457
COSMOS 2278             
1 23087U 94023A   26064.28357117  .00000281  00000+0  17130-3 0  9995
2 23087  71.0545 184.3143 0007740  22.2183 337.9273 14.14376796644189
SL-16 R/B               
1 23088U 94023B   26064.26132172 -.00000149  00000+0 -52261-4 0  9996
2 23088  70.9987  80.1880 0005669 289.9733  70.0779 14.15013223645462
SL-16 R/B               
1 23343U 94074B   26064.05276086  .00000630  00000+0  91116-4 0  9991
2 23343  97.7114  95.0582 0005465 228.2670 160.2790 14.79401664686560
SL-16 R/B               
1 23405U 94077B   26064.24466605 -.00000217  00000+0 -86331-4 0  9998
2 23405  70.9851   1.8393 0003348 218.5508 141.5376 14.15561763615601
ARIANE 40+ R/B          
1 23561U 95021B   26064.15292925  .00000380  00000+0  13507-3 0  9996
2 23561  98.4506 135.6969 0007450 148.6965 232.6799 14.39768547618596
SL-16 R/B               
1 23705U 95058B   26064.32211547  .00000094  00000+0  72394-4 0  9998
2 23705  71.0212 189.4236 0010982 133.4816 226.7223 14.15493059567239
SL-16 R/B               
1 24298U 96051B   26064.27933462  .00000116  00000+0  89656-4 0  9995
2 24298  70.7598 184.5730 0015469 154.6404 205.5478 14.12414380521029
ORBVIEW 2 (SEASTAR)     
1 24883U 97037A   26064.16606063  .00000431  00000+0  16600-3 0  9990
2 24883  98.8557 228.3581 0003159  80.9632 279.1910 14.35490983507821
SL-16 R/B               
1 25400U 98043G   26064.31130724  .00000092  00000+0  57382-4 0  9993
2 25400  98.8249  17.6440 0010416  32.5107 327.6712 14.26048554438366
SL-16 R/B               
1 25407U 98045B   26063.48759336 -.00000174  00000+0 -63820-4 0  9992
2 25407  71.0113 192.5126 0006434  15.8870 344.2454 14.16189328426365
ISS (ZARYA)             
1 25544U 98067A   26064.25394533  .00008604  00000+0  16717-3 0  9994
2 25544  51.6314  94.2866 0008160 158.8383 201.2944 15.48454548555643
CZ-4B R/B               
1 25732U 99025C   26064.15175646  .00000079  00000+0  59119-4 0  9991
2 25732  98.6636 108.5407 0036998 359.7385  68.5947 14.18264374387523
OKEAN-O                 
1 25860U 99039A   26064.12320565  .00000857  00000+0  11926-3 0  9994
2 25860  97.9451 124.0609 0001402  70.5511 289.5852 14.80326672433712
SL-16 R/B               
1 25861U 99039B   26064.17490202  .00000823  00000+0  11113-3 0  9997
2 25861  97.9974 123.2781 0013439 272.3041  87.6633 14.81724541436195
DELTA 2 R/B             
1 25876U 99041E   26064.12341008  .00001599  00000+0  29502-3 0  9992
2 25876  51.7642 319.5187 0502346 334.9571  22.7733 14.11822682362382
HELIOS 1B               
1 25977U 99064A   26064.20747926  .00003003  00000+0  33616-3 0  9990
2 25977  98.1700 326.3192 0002553  80.8278 279.3226 14.87677050684599
TERRA                   
1 25994U 99068A   26064.26433888  .00000637  00000+0  13891-3 0  9991
2 25994  97.9601 117.8679 0002432 161.9987 262.9617 14.61009456394436
SL-16 R/B               
1 26070U 00006B   26064.20818220  .00000144  00000+0  97336-4 0  9992
2 26070  71.0012 107.2612 0017103 196.4346 163.6225 14.15825208347928
TITAN 4B R/B            
1 26474U 00047B   26064.25719214  .00005839  00000+0  36529-3 0  9995
2 26474  67.9890  52.9732 0038145  40.6350 319.7634 15.09510212392240
ENVISAT                 
1 27386U 02009A   26064.31924943  .00000196  00000+0  77384-4 0  9998
2 27386  98.3722  18.0208 0001331  84.4515  70.7498 14.39035096258542
IDEFIX & ARIANE 42P R/B 
1 27422U 02021B   26064.23074047  .00000411  00000+0  17273-3 0  9995
2 27422  98.5866   2.8904 0011312 195.5526 164.5311 14.31022500243384
AQUA                    
1 27424U 02022A   26064.32398608  .00001538  00000+0  31676-3 0  9994
2 27424  98.4169  31.6096 0000608  62.6450 101.9190 14.61964771268092
CZ-4B R/B               
1 27432U 02024C   26064.11343373  .00000070  00000+0  58626-4 0  9996
2 27432  98.8848 117.5430 0050690  37.0917 343.9436 14.14546730228596
MIDORI II (ADEOS-II)    
1 27597U 02056A   26063.48333721  .00000458  00000+0  19793-3 0  9999
2 27597  98.7761  21.9252 0001781  50.0959 310.0379 14.29280605209557
H-2A R/B                
1 27601U 02056E   26064.32959079  .00000381  00000+0  14800-3 0  9998
2 27601  98.3196  24.8613 0070235 173.6093 344.7076 14.33757469213482
CZ-4B R/B               
1 28059U 03049C   26063.50099525  .00000621  00000+0  15405-3 0  9998
2 28059  98.6874  58.2023 0047075 247.0745 112.5479 14.55014781185841
CZ-2C R/B               
1 28222U 04012C   26064.13101856  .00060023  00000+0  63464-3 0  9992
2 28222  97.7237 128.9931 0013091 328.0997  31.9467 15.63888420203569
SL-16 R/B               
1 28353U 04021B   26064.21426111 -.00000181  00000+0 -69392-4 0  9998
2 28353  70.9991 241.8848 0003797  18.1800 341.9457 14.14599302122205
CZ-4B R/B               
1 28415U 04035C   26064.32819206  .00009638  00000+0  34015-3 0  9992
2 28415  97.3500  98.6226 0031429 347.4266  12.6187 15.28969447179243
CZ-2C R/B               
1 28480U 04046B   26064.20831619  .00000157  00000+0  73366-4 0  9995
2 28480  98.1987 339.4710 0139622 167.6551 192.8111 14.26990318107865
